#dP2022  9 24  6  0  0.00000000      96 __u+U ITR00 EXT  IAC
## 2228 540000.00000000   900.00000000 59846 0.2500000000000
+  116   C06C07C08C09C10C11C12C13C14C16C19C20C21C22C23C24C25
+        C26C27C28C29C30C32C33C34C35C36C37C38C39C40C41C42C43
+        C44C45C46E01E02E03E04E05E07E08E09E10E11E12E13E14E15
+        E18E19E21E24E25E26E27E30E31E33E34E36G01G02G03G04G05
+        G07G08G09G10G11G12G13G14G15G16G17G18G19G20G21G22G23
+        G24G25G26G27G28G29G30G31G32J02J03R01R02R03R04R05R07
+        R08R09R11R12R13R14R15R17R18R19R20R21R24R25  0  0  0
++        13  9 10 11  9  8  9  9 10 13  8  9  9  8  8  8  8
++         9 10  9  9  9  8 10 10 10  8  9 10 10 10  8 10  9
++         9  9  8  8  8  8  9  8  8  9  8  8  8  8  9  9  8
++         8  8  8  9  7  8  8  8  8  8  9  9  7  8  8  8  8
++         8  7  8  8  9  7  8  8  9  8  8  8  8  9  8  8  8
++         8  8  8  8  8  8  8  8  8  8  9  9  9  8  8  9  9
++         9 10  8  8  9  8  9 10  9 10 11  9  9 10  0  0  0
%c M  cc GPS ccc cccc cccc cccc cccc ccccc ccccc ccccc ccccc
%c cc cc ccc ccc cccc cccc cccc cccc ccccc ccccc ccccc ccccc
%f  0.0000000  0.000000000  0.00000000000  0.000000000000000
%f  0.0000000  0.000000000  0.00000000000  0.000000000000000
%i    0    0    0    0      0      0      0      0         0
%i    0    0    0    0      0      0      0      0         0
/* IAC                                ULTRA-RAPID PREDICTION
/* S/V CLOCKS ARE ALIGNED TO GNSS TIME                      
/* G:C1WC2W R:C1PC2P E:C1XC5X C:C2IC6I J:C1CC2S             
/* PCV:IGS14_2218 OL/AL:FES2004  NONE     YN ORB:CoN CLK:CoN
*  2022 09 24  7 45  0.00000000
PC06  -1413.259072  32545.882763  26903.642604    909.811004
PC07 -15821.758251  27097.129032 -28180.126331   -184.068009
PC08 -15107.977798  39084.855098   3610.048450    479.140717
PC09   5664.987597  36974.103564  20322.949740   -854.384183
PC10  -7882.501972  27662.247271 -30645.806034     92.778748
PC11  -8044.273149  13856.079976 -22775.738566   -390.678684
PC12 -19518.605667  -3225.673277 -19653.671931   -507.121908
PC13  -8936.250676  39566.493329  11078.630554     88.964362
PC14 -18441.502847  14321.659199  15332.691123    673.690890
PC16  -4566.866370  29884.698531  29686.534735    135.391797
PC19   8633.616074 -16273.975960 -20940.588503   -724.523486
PC20  24135.489799 -10819.155559  -8854.098847    757.205125
PC21 -26215.506917  -1596.741581  -9454.466941   -461.451499
PC22 -12587.277338 -12606.775258 -21494.989154   -760.980829
PC23   5171.608752  21683.508857 -16773.158023   -232.957088
PC24 -17344.640030  15128.060290  15758.908776   -292.069711
PC25  -7391.500737  26841.075124  -1736.271520   -673.703257
PC26 -16117.765761  -2855.950269  22589.779862    -11.952545
PC27  21658.518919  11202.114574  13557.944917     25.665772
PC28  16316.552776  22457.270475  -2806.445907     16.570903
PC29  -1417.062746 -20767.834313  18582.703771     17.748695
PC30  15114.323227  -6613.431496  22502.939947      0.095509
PC32  26174.759972   1479.916254   9557.574151   -789.185899
PC33  -8676.692669  16352.301597  20881.916452   -741.635959
PC34 -14348.255754   7708.666217 -22668.294906      1.777640
PC35 -16237.469399 -22294.032691   4149.497093     11.114261
PC36   8387.876479 -26594.660704   1199.743380   -359.740822
PC37  15615.878554   4587.494643 -22648.966304   -293.992049
PC38 -18668.688486  37439.078579  -4367.895106     26.416367
PC39  -7649.046908  26294.474845  32130.264011     -0.497645
PC40 -22405.864911  20554.526543 -29304.145642     -4.742255
PC41  12044.783545  12857.609274  21684.197670   -108.168198
PC42 -24751.383622  10303.159043   7813.431111   -351.598649
PC43    583.612289  20493.429630 -18946.956571     15.946915
PC44 -22120.589693 -10493.178969 -13378.918131     60.099260
PC45  -5340.163564 -21430.058492  17079.666975     -1.577956
PC46  16910.108109 -16780.313166 -14559.431175     -1.916330
PE01  21571.911392 -20153.602460   2204.293387   -534.062848
PE02 -21478.507821  20217.589072  -2363.213781    326.617256
PE03 -15653.627657  11229.259141  22469.028135   -602.998514
PE04  -5380.136667 -18623.845141 -22369.050254  -1122.184529
PE05 -27930.133495  -2928.165364   9356.144072   -141.001471
PE07  23779.435870  15157.165509   8982.820725   -707.859890
PE08   5550.971395  18488.329349  22431.516815   -604.017956
PE09 -23771.623811 -15103.186599  -9135.566095   -669.563283
PE10  -9164.654283 -27534.708646  -5883.047697   -478.996851
PE11 -14080.023353 -21051.063723 -15332.241126   2088.605168
PE12  -3023.077474 -29201.644332   3755.160934   -186.124388
PE13  13773.045992  21686.487196  14698.607323    430.613220
PE14  22346.511302   9282.347959   2820.475151      8.544311
PE15   2955.890980  29177.497758  -3986.361171    718.398279
PE18 -29027.241602  -3354.073709 -13412.551350   -939.875709
PE19  18006.410505  -9448.520162 -21510.561541  -4446.833004
PE21  24558.759624  -7766.786755 -14579.515490   -759.541272
PE24 -12889.671464 -10942.746186  24289.594294   -854.118640
PE25 -24500.704096   7488.032043  14835.970218   -588.471341
PE26  16451.693063    505.555560  24601.790292  -1649.250049
PE27  13786.209925   9992.281591 -24202.590977   -399.451397
PE30  -5858.612468  21947.104055 -18971.573166   -861.978321
PE31   4991.584858 -21711.687868  19506.346873   -504.245509
PE33   9541.909334 -19412.482217  20208.903677   -454.035219
PE34  -9422.113844  19566.437922 -20112.486791     -6.080060
PE36 -16411.973031  -1556.474338 -24584.696450   -436.043663
PG01  13279.223317  -8259.946937  21096.098514    278.621098
PG02 -14731.720632   1565.435932 -21422.677365   -644.942661
PG03  23168.035817 -11132.890095   6333.067076   -355.809346
PG04  20895.951584  -2209.977496 -16302.593544   -114.057445
PG05 -21102.933309   2009.953767 -16261.644384    -97.840269
PG07   6661.211698 -22226.807685 -12044.578339    304.966715
PG08  25028.288189   4638.123534   8160.159598    -85.927614
PG09  11074.611524 -11581.241198 -21265.932670   -292.120619
PG10  -3611.891040  18317.103795  18917.049632     -4.634176
PG11 -12104.664906 -16983.856855 -16465.607285    -19.058654
PG12 -23903.197501   9172.707703   6598.851671   -283.281441
PG13 -23042.344234 -13276.836678   1739.994492    393.447819
PG14   6093.874429 -18952.427702  17535.777087   -101.174015
PG15 -25398.752504  -1921.161378   7601.969795    -26.453777
PG16  17556.773322   5432.467695 -19613.514544   -524.919133
PG17  -3449.106261 -17349.499958  20231.638496    662.249918
PG18  -6190.956773  23038.694240 -11536.814642     37.970439
PG19 -13822.989656 -18535.048286  13055.026531    214.854884
PG20 -12168.060757  -9804.879012 -21456.819034    483.870661
PG21  15869.855496   1843.283040  21916.220928    159.030952
PG22  15811.193951  18266.310346  11654.280418    333.464680
PG23 -13421.731568  19821.801160  11355.113334     -0.386387
PG24 -15123.910844   4054.538273  21116.851055    124.583524
PG25 -19390.421463  17527.453035  -4076.542987    375.350185
PG26   9783.115128  12397.590961 -21437.384005    229.825527
PG27  23133.261686  13116.687825  -3338.535502    207.830419
PG28  -2826.373836 -15716.987131  21764.368849    335.978562
PG29 -12647.242679   9424.787062 -21427.842160   -554.177391
PG30   -688.702649 -26339.908722  -1872.150054   -537.123701
PG31   7664.495727  23762.687432  -8483.024338   -194.458103
PG32   7601.440316  17687.996340  18528.424778   -242.659535
PJ02 -35485.330857  22700.097878   2565.139995     -5.692566
PJ03 -20428.698752  22425.269309 -24695.627259     -1.978322
PR01 -23409.945274  -3838.692030  -9394.169469     15.219914
PR02 -23046.860960   4566.346046   9885.152309    -22.751522
PR03  -8783.598088  10292.181594  21648.106225     64.275813
PR04   9974.650683   9954.649506  21286.831971    158.722544
PR05  23376.370786   4408.247769   9249.631138    100.138595
PR07   8118.834090 -10361.313560 -21827.376925     41.488820
PR08 -10134.706097  -9967.707554 -21121.488826    -67.325569
PR09  15642.097329 -14892.523751 -13488.489260     78.402142
PR11    465.151620 -18309.990829  17760.411530     26.523785
PR12 -11317.393920  -2139.581758  22788.896593     21.560192
PR13 -15614.677032  13729.037398  14768.474949    -27.115673
PR14 -10887.187204  22837.638194  -3312.380926     24.245601
PR15     65.796754  17749.034089 -18296.969164     93.562020
PR17    716.470502  17804.831088 -18221.322637    563.571015
PR18  10947.300930  22758.983248  -3719.612104     43.916829
PR19  14904.028024  17100.798643  11651.360484   -204.814895
PR20  10734.144000  -1576.149596  23095.704354    -78.947643
PR21  -1792.724116 -18784.324392  17183.777124   -336.199386
PR24 -10757.323864   2778.277662 -22946.607965    116.385342
PR25 -10300.880084 -23137.511435   3037.324931     13.517701
EOF
